ONEWEB-0207             
1 48242U 21031AJ  25361.91318354 -.00000075  00000+0 -23732-3 0  9991
2 48242  87.9011 323.8156 0001758  89.1374 270.9957 13.14503831225792
ONEWEB-0208             
1 48243U 21031AK  25361.97107041  .00000151  00000+0  37342-3 0  9992
2 48243  87.9006 323.8176 0001526  76.6531 283.4769 13.14501838225816
ONEWEB-0200             
1 48244U 21031AL  25361.93459492 -.00000186  00000+0 -53620-3 0  9996
2 48244  87.9005 323.8147 0001691  81.4734 278.6587 13.14503183225736
ONEWEB-0217             
1 48245U 21031AM  25361.95043959  .00000036  00000+0  61892-4 0  9999
2 48245  87.9016 323.8071 0001506  76.9847 283.1450 13.14501934225680
ONEWEB-0211             
1 48767U 21045A   25361.83851933 -.00000046  00000+0 -15609-3 0  9996
2 48767  87.9017 293.3098 0001573  62.0155 298.1135 13.16138173221902
ONEWEB-0223             
1 48768U 21045B   25361.83612457  .00002951  00000+0  78030-2 0  9994
2 48768  87.9004 293.3778 0002007  63.5479 296.5857 13.15537822221874
ONEWEB-0230             
1 48769U 21045C   25361.73152397  .00000138  00000+0  33333-3 0  9999
2 48769  87.9004 293.4270 0001880  79.0953 281.0389 13.15546752222120
ONEWEB-0237             
1 48770U 21045D   25361.79649218  .00000147  00000+0  35616-3 0  9996
2 48770  87.9007 293.4145 0001889  67.2387 292.8943 13.15547035221855
